     2.100          NAVIGATION                              RINEX VERSION / TYPE
fic2rin                                 06/15/2015 00:14:14 PGM / RUN BY / DATE
                                                            END OF HEADER
20 15  6 14 18  0  0.0  .329591333866D-03  .352429196937D-11  .000000000000D+00
     .880000000000D+02 -.399062500000D+02  .549201447873D-08  .600661177023D+00
    -.193715095520D-05  .559309683740D-02  .649131834507D-05  .515581977654D+04
     .648000000000D+05 -.152736902237D-06 -.133387029824D+01 -.987201929092D-07
     .925818843660D+00  .239531250000D+03  .122405903854D+01 -.852606943073D-08
    -.522521765129D-09  .100000000000D+01  .184900000000D+04  .000000000000D+00
     .240000000000D+01  .000000000000D+00 -.838190317154D-08  .880000000000D+02
     .576060000000D+05  .400000000000D+01
21 15  6 14 18  0  0.0 -.455248635262D-03 -.341060513165D-11  .000000000000D+00
     .270000000000D+02  .332500000000D+02  .523950396066D-08 -.255407577356D+01
     .161491334438D-05  .224753650837D-01  .578351318836D-05  .515380088615D+04
     .648000000000D+05  .290572643280D-06 -.232521095613D+01 -.167638063431D-07
     .933909460895D+00  .250000000000D+03 -.190080126716D+01 -.804569227824D-08
     .493591988659D-09  .100000000000D+01  .184900000000D+04  .000000000000D+00
     .240000000000D+01  .000000000000D+00 -.116415321827D-07  .270000000000D+02
     .576060000000D+05  .400000000000D+01
22 15  6 14 18  0  0.0  .360941980034D-03  .397903932026D-11  .000000000000D+00
     .710000000000D+02 -.363437500000D+02  .547772816937D-08  .217961173605D+01
    -.195950269699D-05  .800863455515D-02  .694580376148D-05  .515368457794D+04
     .648000000000D+05 -.372529029846D-08 -.128038478149D+01 -.143423676491D-06
     .922471063891D+00  .224718750000D+03 -.204490960987D+01 -.840070706603D-08
    -.482162941165D-09  .100000000000D+01  .184900000000D+04  .000000000000D+00
     .340000000000D+01  .000000000000D+00 -.176951289177D-07  .710000000000D+02
     .576060000000D+05  .400000000000D+01
23 15  6 14 18  0  0.0 -.114823225886D-03 -.238742359215D-11  .000000000000D+00
     .500000000000D+02  .100218750000D+03  .443839916285D-08 -.553725230821D-01
     .530667603016D-05  .103042504052D-01  .112820416689D-04  .515361350441D+04
     .648000000000D+05  .137835741043D-06 -.209523428292D+00  .119209289551D-06
     .948714725822D+00  .156937500000D+03 -.267117945168D+01 -.808426531353D-08
    -.357157734196D-11  .100000000000D+01  .184900000000D+04  .000000000000D+00
     .240000000000D+01  .000000000000D+00 -.200234353542D-07  .500000000000D+02
     .576060000000D+05  .400000000000D+01
24 15  6 14 18  0  0.0 -.499384477735D-04 -.682121026330D-12  .000000000000D+00
     .620000000000D+02  .983125000000D+02  .493949146393D-08 -.806394137758D+00
     .518001616001D-05  .322855124250D-02  .245682895184D-05  .515367204285D+04
     .648000000000D+05  .447034835815D-07  .816951201228D+00 -.745058059692D-08
     .953343310850D+00  .327062500000D+03  .361742060100D+00 -.850821154402D-08
     .362872257943D-09  .100000000000D+01  .184900000000D+04  .000000000000D+00
     .240000000000D+01  .000000000000D+00  .232830643654D-08  .620000000000D+02
     .576060000000D+05  .400000000000D+01
25 15  6 14 18  0  0.0 -.184029340744D-05 -.420641299570D-11  .000000000000D+00
     .270000000000D+02 -.105687500000D+03  .431267964042D-08 -.283365178017D+01
    -.555999577045D-05  .465809670277D-02  .385753810406D-05  .515367282867D+04
     .648000000000D+05 -.931322574615D-08  .188097168323D+01 -.184401869774D-06
     .978090995679D+00  .312812500000D+03  .739334467471D+00 -.812676708390D-08
    -.289654922433D-09  .100000000000D+01  .184900000000D+04  .000000000000D+00
     .240000000000D+01  .000000000000D+00  .558793544769D-08  .270000000000D+02
     .576060000000D+05  .400000000000D+01
26 15  6 14 18  0  0.0  .292272306979D-04 -.204636307899D-11  .000000000000D+00
     .440000000000D+02 -.108656250000D+03  .483270130141D-08  .164046037455D+01
    -.562518835068D-05  .321030849591D-03  .415742397308D-05  .515358575630D+04
     .648000000000D+05 -.707805156708D-07  .187807364837D+01  .186264514923D-08
     .960205801043D+00  .299343750000D+03  .121628832052D+01 -.833499004293D-08
    -.273582824394D-09  .100000000000D+01  .184900000000D+04  .000000000000D+00
     .240000000000D+01  .000000000000D+00  .745058059692D-08  .440000000000D+02
     .576060000000D+05  .400000000000D+01
28 15  6 14 18  0  0.0  .446817371994D-03  .261479726760D-11  .000000000000D+00
     .118000000000D+03 -.128593750000D+03  .398088010535D-08  .195677031849D+01
    -.698491930962D-05  .195395451738D-01  .420026481152D-05  .515370091057D+04
     .648000000000D+05  .234693288803D-06  .195185131204D+01 -.353902578354D-06
     .988798561235D+00  .313687500000D+03 -.166257221015D+01 -.782746890264D-08
    -.378230040514D-09  .100000000000D+01  .184900000000D+04  .000000000000D+00
     .340000000000D+01  .000000000000D+00 -.111758708954D-07  .118000000000D+03
     .576060000000D+05  .400000000000D+01
29 15  6 14 18  0  0.0  .616652425379D-03  .227373675443D-11  .000000000000D+00
     .650000000000D+02 -.555625000000D+02  .389016204086D-08 -.259352873433D+01
    -.308081507683D-05  .119732622989D-02  .115390866995D-04  .515375794792D+04
     .648000000000D+05 -.298023223877D-07  .298209140785D+01  .000000000000D+00
     .973922400371D+00  .163000000000D+03 -.543115268234D+00 -.759995942596D-08
     .169649923743D-09  .100000000000D+01  .184900000000D+04  .000000000000D+00
     .240000000000D+01  .000000000000D+00 -.977888703346D-08  .650000000000D+02
     .576060000000D+05  .400000000000D+01
30 15  6 14 18  0  0.0 -.437111593783D-04  .659383658785D-11  .000000000000D+00
     .760000000000D+02  .856250000000D+02  .498806491578D-08 -.151270668939D+01
     .416859984398D-05  .150562496856D-02  .179745256901D-05  .515373075294D+04
     .648000000000D+05 -.931322574615D-08  .907223844097D+00 -.540167093277D-07
     .955832414760D+00  .344531250000D+03  .291633320800D+01 -.859892960850D-08
     .335371112410D-09  .100000000000D+01  .184900000000D+04  .000000000000D+00
     .240000000000D+01  .000000000000D+00  .325962901115D-08  .760000000000D+02
     .576060000000D+05  .400000000000D+01
31 15  6 14 18  0  0.0  .312957447022D-03 -.113686837722D-11  .000000000000D+00
     .540000000000D+02  .797500000000D+02  .457483341732D-08 -.177711835929D+01
     .412203371525D-05  .802800781094D-02  .222399830818D-05  .515353087425D+04
     .648000000000D+05 -.128522515297D-06  .865979237317D+00 -.102445483208D-06
     .974993518268D+00  .350062500000D+03 -.526657243811D+00 -.832570394184D-08
     .347514475373D-09  .100000000000D+01  .184900000000D+04  .000000000000D+00
     .240000000000D+01  .000000000000D+00 -.135041773319D-07  .540000000000D+02
     .576060000000D+05  .400000000000D+01
32 15  6 14 18  0  0.0 -.125464517623D-03  .966338120634D-11  .000000000000D+00
     .420000000000D+02 -.253750000000D+02  .489734685130D-08 -.115852223964D+01
    -.140815973282D-05  .112445888808D-01  .788457691669D-05  .515374470901D+04
     .648000000000D+05  .614672899246D-07 -.117904899180D+01 -.229105353355D-06
     .946587119210D+00  .220062500000D+03  .593956311864D-01 -.810712340852D-08
    -.458590530708D-09  .100000000000D+01  .184900000000D+04  .000000000000D+00
     .240000000000D+01  .000000000000D+00 -.372529029846D-08  .420000000000D+02
     .576060000000D+05  .400000000000D+01
 5 15  6 14 17 59 44.0 -.229453202337D-03  .443378667114D-11  .000000000000D+00
     .250000000000D+02 -.361875000000D+02  .504556731099D-08  .198246207995D+01
    -.186450779438D-05  .414653320331D-02  .709667801857D-05  .515357037163D+04
     .647840000000D+05 -.260770320892D-07 -.126797404720D+01 -.391155481339D-07
     .946078516722D+00  .237656250000D+03  .370831736276D+00 -.825391523727D-08
    -.574666794322D-09  .100000000000D+01  .184900000000D+04  .000000000000D+00
     .240000000000D+01  .000000000000D+00 -.107102096081D-07  .250000000000D+02
     .578760000000D+05  .400000000000D+01
 1 15  6 14 20  0  0.0 -.427104532719D-05  .454747350886D-12  .000000000000D+00
     .125000000000D+03  .204062500000D+02  .491341894934D-08  .851477424024D-01
     .996515154839D-06  .434502656572D-02  .577978789806D-05  .515365501785D+04
     .720000000000D+05  .298023223877D-07 -.230175991265D+01  .428408384323D-07
     .962186014270D+00  .264343750000D+03  .386553847074D+00 -.824105755884D-08
     .261082303697D-09  .100000000000D+01  .184900000000D+04  .000000000000D+00
     .240000000000D+01  .000000000000D+00  .558793544769D-08  .125000000000D+03
     .648060000000D+05  .400000000000D+01
 2 15  6 14 20  0  0.0  .572104007006D-03  .238742359215D-11  .000000000000D+00
     .360000000000D+02  .256875000000D+02  .539415325956D-08  .541287216042D+00
     .150874257088D-05  .146061050473D-01  .659562647343D-05  .515356468201D+04
     .720000000000D+05 -.156462192535D-06 -.233973888690D+01  .165775418282D-06
     .940852799256D+00  .244468750000D+03 -.225656186192D+01 -.858785771874D-08
     .265011038773D-09  .100000000000D+01  .184900000000D+04  .000000000000D+00
     .240000000000D+01  .000000000000D+00 -.204890966415D-07  .360000000000D+02
     .648060000000D+05  .400000000000D+01
 3 15  6 14 20  0  0.0  .349995680153D-03  .716227077646D-11  .000000000000D+00
     .300000000000D+02 -.280625000000D+02  .468090926437D-08  .194872767912D+01
    -.153854489326D-05  .878932420164D-03  .775977969170D-05  .515366020966D+04
     .720000000000D+05  .372529029846D-07 -.126076136075D+01 -.745058059692D-08
     .958863279659D+00  .231968750000D+03 -.257154679122D+01 -.801069082028D-08
    -.647884129832D-09  .100000000000D+01  .184900000000D+04  .000000000000D+00
     .240000000000D+01  .000000000000D+00  .186264514923D-08  .300000000000D+02
     .648060000000D+05  .400000000000D+01
